NORAD_CAT_ID,OBJECT_NAME,OBJECT_TYPE,EPOCH,MEAN_MOTION,ECCENTRICITY,INCLINATION,RA_OF_ASC_NODE,ARG_OF_PERICENTER,MEAN_ANOMALY,BSTAR,MEAN_MOTION_DOT,MEAN_MOTION_DDOT,TLE_LINE0,TLE_LINE1,TLE_LINE2,SEMIMAJOR_AXIS,PERIOD,APOGEE,PERIGEE,DECAYED
51784.0,STARLINK-3632,PAYLOAD,2023-12-09 16:25:52,15.08838333,0.0001291,53.2179,74.7525,95.5338,264.5802,3.6922e-05,3e-06,0.0,0 STARLINK-3632,1 51784U 22017S   23343.68463736  .00000300  00000-0  36922-4 0  9994,2 51784  53.2179  74.7525 0001291  95.5338 264.5802 15.08838333 99984,6917.885,95.438,540.644,538.857,0.0
51784.0,STARLINK-3632,PAYLOAD,2023-12-10 13:05:53,15.0883767,0.0001372,53.2183,70.8864,97.8033,262.3115,3.5581e-05,2.78e-06,0.0,0 STARLINK-3632,1 51784U 22017S   23344.54575915  .00000278  00000-0  35581-4 0  9997,2 51784  53.2183  70.8864 0001372  97.8033 262.3115 15.08837670 98467,6917.888,95.438,540.702,538.803,0.0
51784.0,STARLINK-3632,PAYLOAD,2023-12-11 11:21:17,15.08837145,0.0001387,53.2182,66.7238,91.483,268.6321,4.5549e-05,4.37e-06,0.0,0 STARLINK-3632,1 51784U 22017S   23345.47312143  .00000437  00000-0  45549-4 0  9994,2 51784  53.2182  66.7238 0001387  91.4830 268.6321 15.08837145100252,6917.889,95.438,540.714,538.795,0.0
51784.0,STARLINK-3632,PAYLOAD,2023-12-11 12:56:40,15.08838972,0.00014,53.2184,66.4267,82.1406,277.9745,5.7539e-05,6.28e-06,0.0,0 STARLINK-3632,1 51784U 22017S   23345.53936067  .00000628  00000-0  57539-4 0  9992,2 51784  53.2184  66.4267 0001400  82.1406 277.9745 15.08838972 98613,6917.884,95.438,540.717,538.78,0.0
51784.0,STARLINK-3632,PAYLOAD,2023-12-12 12:47:28,15.08836837,0.0001573,53.2183,61.9712,70.1154,290.0008,5.394e-05,5.7e-06,0.0,0 STARLINK-3632,1 51784U 22017S   23346.53296549  .00000570  00000-0  53940-4 0  9995,2 51784  53.2183  61.9712 0001573  70.1154 290.0008 15.08836837 98767,6917.89,95.438,540.843,538.667,0.0
51784.0,STARLINK-3632,PAYLOAD,2023-12-13 12:38:14,15.08845901,0.0001702,53.2187,57.511,65.7458,294.3712,9.7624e-05,1.266e-05,0.0,0 STARLINK-3632,1 51784U 22017S   23347.52655913  .00001266  00000-0  97624-4 0  9999,2 51784  53.2187  57.5110 0001702  65.7458 294.3712 15.08845901 98913,6917.862,95.437,540.905,538.55,0.0
51784.0,STARLINK-3632,PAYLOAD,2023-12-13 23:45:56,15.08841643,0.0001713,53.2186,55.4331,67.447,292.6704,6.5296e-05,7.51e-06,0.0,0 STARLINK-3632,1 51784U 22017S   23347.99024233  .00000751  00000-0  65296-4 0  9993,2 51784  53.2186  55.4331 0001713  67.4470 292.6704 15.08841643100633,6917.875,95.437,540.925,538.555,0.0
51784.0,STARLINK-3632,PAYLOAD,2023-12-14 10:53:39,15.08838887,0.000163,53.2184,53.3505,70.3998,289.717,2.5764e-05,1.22e-06,0.0,0 STARLINK-3632,1 51784U 22017S   23348.45392529  .00000122  00000-0  25764-4 0  9999,2 51784  53.2184  53.3505 0001630  70.3998 289.7170 15.08838887 99050,6917.884,95.438,540.876,538.621,0.0
51784.0,STARLINK-3632,PAYLOAD,2023-12-15 10:44:26,15.08842327,0.0001464,53.219,48.8899,80.1884,279.9273,-8.0465e-05,-1.568e-05,0.0,0 STARLINK-3632,1 51784U 22017S   23349.44752725 -.00001568  00000-0 -80465-4 0  9993,2 51784  53.2190  48.8899 0001464  80.1884 279.9273 15.08842327 99206,6917.873,95.437,540.751,538.725,0.0
51784.0,STARLINK-3632,PAYLOAD,2023-12-16 10:35:12,15.08843255,0.0001541,53.2191,44.4294,94.822,265.2948,0.00010668,1.41e-05,0.0,0 STARLINK-3632,1 51784U 22017S   23350.44112096  .00001410  00000-0  10668-3 0  9997,2 51784  53.2191  44.4294 0001541  94.8220 265.2948 15.08843255101000,6917.87,95.437,540.801,538.669,0.0
51784.0,STARLINK-3632,PAYLOAD,2023-12-17 10:26:00,15.08839076,0.0001547,53.2189,39.9683,103.0155,257.101,4.8541e-05,4.85e-06,0.0,0 STARLINK-3632,1 51784U 22017S   23351.43472734  .00000485  00000-0  48541-4 0  9998,2 51784  53.2189  39.9683 0001547 103.0155 257.1010 15.08839076101156,6917.883,95.438,540.818,538.678,0.0
51784.0,STARLINK-3632,PAYLOAD,2023-12-18 08:41:23,15.088525,0.0001574,53.2192,35.8091,105.4468,254.6698,5.6665e-05,6.14e-06,0.0,0 STARLINK-3632,1 51784U 22017S   23352.36207845  .00000614  00000-0  56665-4 0  9990,2 51784  53.2192  35.8091 0001574 105.4468 254.6698 15.08852500101297,6917.842,95.437,540.796,538.618,0.0
51784.0,STARLINK-3632,PAYLOAD,2023-12-19 10:07:34,15.08838314,0.0001278,53.2181,31.0445,90.9492,269.1646,-6.4069e-06,-3.9e-06,0.0,0 STARLINK-3632,1 51784U 22017S   23353.42193035 -.00000390  00000-0 -64069-5 0  9994,2 51784  53.2181  31.0445 0001278  90.9492 269.1646 15.08838314101451,6917.886,95.438,540.635,538.866,0.0
51784.0,STARLINK-3632,PAYLOAD,2023-12-20 09:58:22,15.08789408,0.0002018,53.2194,26.585,68.6867,291.434,0.00073018,0.00011336,0.0,0 STARLINK-3632,1 51784U 22017S   23354.41554368  .00011336  00000-0  73018-3 0  9996,2 51784  53.2194  26.5850 0002018  68.6867 291.4340 15.08789408101600,6918.035,95.441,541.296,538.504,0.0
51784.0,STARLINK-3632,PAYLOAD,2023-12-21 09:49:09,15.08799612,0.0002231,53.2207,22.1212,61.5193,298.6024,0.0009843,0.00015395,0.0,0 STARLINK-3632,1 51784U 22017S   23355.40913846  .00015395  00000-0  98430-3 0  9990,2 51784  53.2207  22.1212 0002231  61.5193 298.6024 15.08799612101752,6918.004,95.44,541.412,538.325,0.0
51784.0,STARLINK-3632,PAYLOAD,2023-12-22 08:04:33,15.0884081,0.0001969,53.2192,17.9618,65.7943,294.3255,5.5675e-05,5.98e-06,0.0,0 STARLINK-3632,1 51784U 22017S   23356.33649544  .00000598  00000-0  55675-4 0  9998,2 51784  53.2192  17.9618 0001969  65.7943 294.3255 15.08840810101894,6917.878,95.438,541.105,538.381,0.0
51784.0,STARLINK-3632,PAYLOAD,2023-12-23 11:06:06,15.08843258,0.0001598,53.2187,12.9006,88.1706,271.9469,5.7823e-05,6.32e-06,0.0,0 STARLINK-3632,1 51784U 22017S   23357.46257306  .00000632  00000-0  57823-4 0  9990,2 51784  53.2187  12.9006 0001598  88.1706 271.9469 15.08843258102065,6917.87,95.437,540.841,538.63,0.0
51784.0,STARLINK-3632,PAYLOAD,2023-12-24 01:24:34,15.08836694,0.0001708,53.2186,10.2232,82.9493,277.1693,0.00012393,1.685e-05,0.0,0 STARLINK-3632,1 51784U 22017S   23358.05873832  .00001685  00000-0  12393-3 0  9995,2 51784  53.2186  10.2232 0001708  82.9493 277.1693 15.08836694102157,6917.89,95.438,540.937,538.574,0.0
51784.0,STARLINK-3632,PAYLOAD,2023-12-24 07:46:07,15.08845496,0.000163,53.2179,9.0339,94.518,265.5999,0.00013375,1.842e-05,0.0,0 STARLINK-3632,1 51784U 22017S   23358.32369326  .00001842  00000-0  13375-3 0  9999,2 51784  53.2179   9.0339 0001630  94.5180 265.5999 15.08845496102193,6917.864,95.437,540.856,538.601,0.0
51784.0,STARLINK-3632,PAYLOAD,2023-12-25 01:15:21,15.0884048,0.0001787,53.2176,5.7694,101.3892,258.7301,2.7379e-05,1.48e-06,0.0,0 STARLINK-3632,1 51784U 22017S   23359.05233719  .00000148  00000-0  27379-4 0  9994,2 51784  53.2176   5.7694 0001787 101.3892 258.7301 15.08840480102309,6917.879,95.438,540.98,538.508,0.0
51784.0,STARLINK-3632,PAYLOAD,2023-12-25 10:47:40,15.08846246,0.000164,53.2178,3.9831,107.925,252.1921,0.00015762,2.222e-05,0.0,0 STARLINK-3632,1 51784U 22017S   23359.44977297  .00002222  00000-0  15762-3 0  9990,2 51784  53.2178   3.9831 0001640 107.9250 252.1921 15.08846246100717,6917.861,95.437,540.861,538.592,0.0
51784.0,STARLINK-3632,PAYLOAD,2023-12-25 23:30:46,15.08828774,0.0001876,53.2172,1.5963,134.7062,225.4083,-9.151e-05,-1.744e-05,0.0,0 STARLINK-3632,1 51784U 22017S   23359.97970193 -.00001744  00000-0 -91510-4 0  9992,2 51784  53.2172   1.5963 0001876 134.7062 225.4083 15.08828774102441,6917.915,95.438,541.078,538.482,0.0
51784.0,STARLINK-3632,PAYLOAD,2023-12-26 05:52:18,15.08837213,0.0002071,53.218,0.4135,120.3321,239.7876,-2.268e-05,-6.49e-06,0.0,0 STARLINK-3632,1 51784U 22017S   23360.24465827 -.00000649  00000-0 -22680-4 0  9992,2 51784  53.2180   0.4135 0002071 120.3321 239.7876 15.08837213102486,6917.889,95.438,541.187,538.321,0.0
51784.0,STARLINK-3632,PAYLOAD,2023-12-27 08:53:51,15.08852385,0.0001593,53.2179,355.3609,101.4008,258.7163,0.00026286,3.899e-05,0.0,0 STARLINK-3632,1 51784U 22017S   23361.37073507  .00003899  00000-0  26286-3 0  9990,2 51784  53.2179 355.3609 0001593 101.4008 258.7163 15.08852385102658,6917.843,95.437,540.81,538.606,0.0
51784.0,STARLINK-3632,PAYLOAD,2023-12-28 03:58:29,15.08841187,0.0001951,53.2173,351.7929,126.2608,233.8565,7.8559e-05,9.62e-06,0.0,0 STARLINK-3632,1 51784U 22017S   23362.16561961  .00000962  00000-0  78559-4 0  9993,2 51784  53.2173 351.7929 0001951 126.2608 233.8565 15.08841187102777,6917.877,95.437,541.091,538.392,0.0
51784.0,STARLINK-3632,PAYLOAD,2023-12-28 07:09:16,15.08840419,0.0001524,53.2179,351.1983,80.6313,279.4851,0.00014018,1.944e-05,0.0,0 STARLINK-3632,1 51784U 22017S   23362.29810342  .00001944  00000-0  14018-3 0  9997,2 51784  53.2179 351.1983 0001524  80.6313 279.4851 15.08840419101140,6917.879,95.438,540.798,538.69,0.0
51784.0,STARLINK-3632,PAYLOAD,2023-12-29 03:49:16,15.08841915,0.0001442,53.2174,347.3322,83.9016,276.214,0.00012627,1.722e-05,0.0,0 STARLINK-3632,1 51784U 22017S   23363.15922369  .00001722  00000-0  12627-3 0  9994,2 51784  53.2174 347.3322 0001442  83.9016 276.2140 15.08841915102929,6917.875,95.437,540.737,538.742,0.0
51784.0,STARLINK-3632,PAYLOAD,2023-12-29 05:24:40,15.08843949,0.0001498,53.2174,347.0349,80.5121,279.604,0.00018265,2.62e-05,0.0,0 STARLINK-3632,1 51784U 22017S   23363.22546368  .00002620  00000-0  18265-3 0  9995,2 51784  53.2174 347.0349 0001498  80.5121 279.6040 15.08843949101289,6917.868,95.437,540.77,538.697,0.0
51784.0,STARLINK-3632,PAYLOAD,2023-12-30 03:40:04,15.08840756,0.0001606,53.2178,342.8735,73.5324,286.5845,0.0001532,2.151e-05,0.0,0 STARLINK-3632,1 51784U 22017S   23364.15282700  .00002151  00000-0  15320-3 0  9993,2 51784  53.2178 342.8735 0001606  73.5324 286.5845 15.08840756103075,6917.878,95.438,540.854,538.632,0.0
51784.0,STARLINK-3632,PAYLOAD,2023-12-30 05:15:27,15.08842716,0.0001593,53.2178,342.5761,74.1028,286.014,0.00016907,2.404e-05,0.0,0 STARLINK-3632,1 51784U 22017S   23364.21906640  .00002404  00000-0  16907-3 0  9999,2 51784  53.2178 342.5761 0001593  74.1028 286.0140 15.08842716101433,6917.872,95.437,540.839,538.635,0.0
